{"type": "FeatureCollection", "features": [ {"type": "Feature", "properties": {"norad_id": 66458, "name": "STARLINK-35684", "group": "last-30-days", "lat": -35.0580631200935, "lon": -6.366800607557979, "alt_km": 391.511481033016, "timestamp": "2025-12-03T13:52:08.345434+00:00", "meta": {"OBJECT_NAME": "STARLINK-35684", "OBJECT_ID": "2025-262C", "EPOCH": "2025-12-03T08:00:01.999872", "MEAN_MOTION": 15.60450683, "ECCENTRICITY": 0.00018098, "INCLINATION": 42.9991, "RA_OF_ASC_NODE": 126.2271, "ARG_OF_PERICENTER": 262.8927, "MEAN_ANOMALY": 39.7111, "EPHEMERIS_TYPE": 0, "CLASSIFICATION_TYPE": "U", "NORAD_CAT_ID": 66458, "ELEMENT_SET_NO": 999, "REV_AT_EPOCH": 412, "BSTAR": -0.027827727, "MEAN_MOTION_DOT": -0.0205693, "MEAN_MOTION_DDOT": 0}, "tle": {"line1": "1 66458U 25262C   25337.33335648 -.02056930  00000+0 -27828-1 0  9995", "line2": "2 66458  42.9991 126.2271 0001809 262.8927  39.7111 15.60450683  4127"}}, "geometry": {"type": "Point", "coordinates": [-6.366800607557979, -35.0580631200935]}}, {"type": "Feature", "properties": {"norad_id": 66459, "name": "STARLINK-35449", "group": "last-30-days", "lat": -36.70193937562042, "lon": -2.105135238840766, "alt_km": 391.663174452804, "timestamp": "2025-12-03T13:52:08.345444+00:00", "meta": {"OBJECT_NAME": "STARLINK-35449", "OBJECT_ID": "2025-262D", "EPOCH": "2025-12-03T08:00:01.999872", "MEAN_MOTION": 15.60450022, "ECCENTRICITY": 0.00016853, "INCLINATION": 42.999, "RA_OF_ASC_NODE": 126.2174, "ARG_OF_PERICENTER": 265.3364, "MEAN_ANOMALY": 41.103, "EPHEMERIS_TYPE": 0, "CLASSIFICATION_TYPE": "U", "NORAD_CAT_ID": 66459, "ELEMENT_SET_NO": 999, "REV_AT_EPOCH": 412, "BSTAR": -0.027830445, "MEAN_MOTION_DOT": -0.02056958, "MEAN_MOTION_DDOT": 0}, "tle": {"line1": "1 66459U 25262D   25337.33335648 -.02056958  00000+0 -27830-1 0  9999", "line2": "2 66459  42.9990 126.2174 0001685 265.3364  41.1030 15.60450022  4128"}}, "geometry": {"type": "Point", "coordinates": [-2.105135238840766, -36.70193937562042]}}, {"type": "Feature", "properties": {"norad_id": 66460, "name": "STARLINK-35424", "group": "last-30-days", "lat": -37.46676624916813, "lon": 0.09682741746651731, "alt_km": 391.7498873010927, "timestamp": "2025-12-03T13:52:08.345455+00:00", "meta": {"OBJECT_NAME": "STARLINK-35424", "OBJECT_ID": "2025-262E", "EPOCH": "2025-12-03T08:00:01.999872", "MEAN_MOTION": 15.60448347, "ECCENTRICITY": 0.00015471, "INCLINATION": 42.999, "RA_OF_ASC_NODE": 126.2126, "ARG_OF_PERICENTER": 262.7246, "MEAN_ANOMALY": 45.6358, "EPHEMERIS_TYPE": 0, "CLASSIFICATION_TYPE": "U", "NORAD_CAT_ID": 66460, "ELEMENT_SET_NO": 999, "REV_AT_EPOCH": 412, "BSTAR": -0.027817184, "MEAN_MOTION_DOT": -0.02055877, "MEAN_MOTION_DDOT": 0}, "tle": {"line1": "1 66460U 25262E   25337.33335648 -.02055877  00000+0 -27817-1 0  9995", "line2": "2 66460  42.9990 126.2126 0001547 262.7246  45.6358 15.60448347  4123"}}, "geometry": {"type": "Point", "coordinates": [0.09682741746651731, -37.46676624916813]}}, {"type": "Feature", "properties": {"norad_id": 66461, "name": "STARLINK-35132", "group": "last-30-days", "lat": -38.18691317296818, "lon": 2.333283460084936, "alt_km": 391.74716800131773, "timestamp": "2025-12-03T13:52:08.345467+00:00", "meta": {"OBJECT_NAME": "STARLINK-35132", "OBJECT_ID": "2025-262F", "EPOCH": "2025-12-03T08:00:01.999872", "MEAN_MOTION": 15.60456342, "ECCENTRICITY": 0.00015989, "INCLINATION": 42.9992, "RA_OF_ASC_NODE": 126.2077, "ARG_OF_PERICENTER": 265.2015, "MEAN_ANOMALY": 45.0681, "EPHEMERIS_TYPE": 0, "CLASSIFICATION_TYPE": "U", "NORAD_CAT_ID": 66461, "ELEMENT_SET_NO": 999, "REV_AT_EPOCH": 412, "BSTAR": -0.027913693, "MEAN_MOTION_DOT": -0.0206269, "MEAN_MOTION_DDOT": 0}, "tle": {"line1": "1 66461U 25262F   25337.33335648 -.02062690  00000+0 -27914-1 0  9995", "line2": "2 66461  42.9992 126.2077 0001598 265.2015  45.0681 15.60456342  4126"}}, "geometry": {"type": "Point", "coordinates": [2.333283460084936, -38.18691317296818]}}, {"type": "Feature", "properties": {"norad_id": 66462, "name": "STARLINK-35499", "group": "last-30-days", "lat": -38.86576928248253, "lon": 4.620786672701651, "alt_km": 391.74520404905434, "timestamp": "2025-12-03T13:52:08.345477+00:00", "meta": {"OBJECT_NAME": "STARLINK-35499", "OBJECT_ID": "2025-262G", "EPOCH": "2025-12-03T08:00:01.999872", "MEAN_MOTION": 15.6044944, "ECCENTRICITY": 0.00016193, "INCLINATION": 42.9992, "RA_OF_ASC_NODE": 126.2022, "ARG_OF_PERICENTER": 263.1691, "MEAN_ANOMALY": 49.0245, "EPHEMERIS_TYPE": 0, "CLASSIFICATION_TYPE": "U", "NORAD_CAT_ID": 66462, "ELEMENT_SET_NO": 999, "REV_AT_EPOCH": 412, "BSTAR": -0.027836806, "MEAN_MOTION_DOT": -0.02057274, "MEAN_MOTION_DDOT": 0}, "tle": {"line1": "1 66462U 25262G   25337.33335648 -.02057274  00000+0 -27837-1 0  9992", "line2": "2 66462  42.9992 126.2022 0001619 263.1691  49.0245 15.60449440  4129"}}, "geometry": {"type": "Point", "coordinates": [4.620786672701651, -38.86576928248253]}}, {"type": "Feature", "properties": {"norad_id": 66463, "name": "STARLINK-35463", "group": "last-30-days", "lat": -40.081185845919215, "lon": 9.310004573167706, "alt_km": 391.64898502768483, "timestamp": "2025-12-03T13:52:08.345490+00:00", "meta": {"OBJECT_NAME": "STARLINK-35463", "OBJECT_ID": "2025-262H", "EPOCH": "2025-12-03T08:00:01.999872", "MEAN_MOTION": 15.60453864, "ECCENTRICITY": 0.00018132, "INCLINATION": 42.9991, "RA_OF_ASC_NODE": 126.1927, "ARG_OF_PERICENTER": 264.6905, "MEAN_ANOMALY": 51.33, "EPHEMERIS_TYPE": 0, "CLASSIFICATION_TYPE": "U", "NORAD_CAT_ID": 66463, "ELEMENT_SET_NO": 999, "REV_AT_EPOCH": 412, "BSTAR": -0.027865884, "MEAN_MOTION_DOT": -0.02059613, "MEAN_MOTION_DDOT": 0}, "tle": {"line1": "1 66463U 25262H   25337.33335648 -.02059613  00000+0 -27866-1 0  9994", "line2": "2 66463  42.9991 126.1927 0001813 264.6905  51.3300 15.60453864  4125"}}, "geometry": {"type": "Point", "coordinates": [9.310004573167706, -40.081185845919215]}}, {"type": "Feature", "properties": {"norad_id": 66464, "name": "STARLINK-35435", "group": "last-30-days", "lat": -39.496276317133244, "lon": 6.941936143846077, "alt_km": 391.78954743796385, "timestamp": "2025-12-03T13:52:08.345500+00:00", "meta": {"OBJECT_NAME": "STARLINK-35435", "OBJECT_ID": "2025-262J", "EPOCH": "2025-12-03T08:00:01.999872", "MEAN_MOTION": 15.60450478, "ECCENTRICITY": 0.00016541, "INCLINATION": 42.9991, "RA_OF_ASC_NODE": 126.1976, "ARG_OF_PERICENTER": 269.781, "MEAN_ANOMALY": 44.3263, "EPHEMERIS_TYPE": 0, "CLASSIFICATION_TYPE": "U", "NORAD_CAT_ID": 66464, "ELEMENT_SET_NO": 999, "REV_AT_EPOCH": 412, "BSTAR": -0.027837632, "MEAN_MOTION_DOT": -0.02057428, "MEAN_MOTION_DDOT": 0}, "tle": {"line1": "1 66464U 25262J   25337.33335648 -.02057428  00000+0 -27838-1 0  9996", "line2": "2 66464  42.9991 126.1976 0001654 269.7810  44.3263 15.60450478  4122"}}, "geometry": {"type": "Point", "coordinates": [6.941936143846077, -39.496276317133244]}}, {"type": "Feature", "properties": {"norad_id": 66465, "name": "STARLINK-35448", "group": "last-30-days", "lat": -41.10364375239526, "lon": 14.173079731989136, "alt_km": 391.7903739770936, "timestamp": "2025-12-03T13:52:08.345510+00:00", "meta": {"OBJECT_NAME": "STARLINK-35448", "OBJECT_ID": "2025-262K", "EPOCH": "2025-12-03T08:00:01.999872", "MEAN_MOTION": 15.60431631, "ECCENTRICITY": 0.00016592, "INCLINATION": 42.9992, "RA_OF_ASC_NODE": 126.1833, "ARG_OF_PERICENTER": 261.2292, "MEAN_ANOMALY": 58.6462, "EPHEMERIS_TYPE": 0, "CLASSIFICATION_TYPE": "U", "NORAD_CAT_ID": 66465, "ELEMENT_SET_NO": 999, "REV_AT_EPOCH": 412, "BSTAR": -0.027588332, "MEAN_MOTION_DOT": -0.02040048, "MEAN_MOTION_DDOT": 0}, "tle": {"line1": "1 66465U 25262K   25337.33335648 -.02040048  00000+0 -27588-1 0  9999", "line2": "2 66465  42.9992 126.1833 0001659 261.2292  58.6462 15.60431631  4121"}}, "geometry": {"type": "Point", "coordinates": [14.173079731989136, -41.10364375239526]}}, {"type": "Feature", "properties": {"norad_id": 66466, "name": "STARLINK-35388", "group": "last-30-days", "lat": -41.53441839770878, "lon": 16.6450089743616, "alt_km": 391.7724163990142, "timestamp": "2025-12-03T13:52:08.345520+00:00", "meta": {"OBJECT_NAME": "STARLINK-35388", "OBJECT_ID": "2025-262L", "EPOCH": "2025-12-03T08:00:01.999872", "MEAN_MOTION": 15.60450702, "ECCENTRICITY": 0.00016893, "INCLINATION": 42.9991, "RA_OF_ASC_NODE": 126.1773, "ARG_OF_PERICENTER": 264.6313, "MEAN_ANOMALY": 57.1463, "EPHEMERIS_TYPE": 0, "CLASSIFICATION_TYPE": "U", "NORAD_CAT_ID": 66466, "ELEMENT_SET_NO": 999, "REV_AT_EPOCH": 412, "BSTAR": -0.027859737, "MEAN_MOTION_DOT": -0.02058895, "MEAN_MOTION_DDOT": 0}, "tle": {"line1": "1 66466U 25262L   25337.33335648 -.02058895  00000+0 -27860-1 0  9992", "line2": "2 66466  42.9991 126.1773 0001689 264.6313  57.1463 15.60450702  4123"}}, "geometry": {"type": "Point", "coordinates": [16.6450089743616, -41.53441839770878]}}, {"type": "Feature", "properties": {"norad_id": 66467, "name": "STARLINK-35682", "group": "last-30-days", "lat": -40.61738985474488, "lon": 11.71931758319313, "alt_km": 391.6165674325175, "timestamp": "2025-12-03T13:52:08.345531+00:00", "meta": {"OBJECT_NAME": "STARLINK-35682", "OBJECT_ID": "2025-262M", "EPOCH": "2025-12-03T08:00:01.999872", "MEAN_MOTION": 15.60450442, "ECCENTRICITY": 0.00018672, "INCLINATION": 42.9993, "RA_OF_ASC_NODE": 126.1881, "ARG_OF_PERICENTER": 262.5711, "MEAN_ANOMALY": 55.3691, "EPHEMERIS_TYPE": 0, "CLASSIFICATION_TYPE": "U", "NORAD_CAT_ID": 66467, "ELEMENT_SET_NO": 999, "REV_AT_EPOCH": 412, "BSTAR": -0.027820708, "MEAN_MOTION_DOT": -0.02056508, "MEAN_MOTION_DDOT": 0}, "tle": {"line1": "1 66467U 25262M   25337.33335648 -.02056508  00000+0 -27821-1 0  9999", "line2": "2 66467  42.9993 126.1881 0001867 262.5711  55.3691 15.60450442  4127"}}, "geometry": {"type": "Point", "coordinates": [11.71931758319313, -40.61738985474488]}}]}